MOZHAYETS 4 (RS-22)     
1 27939U 03042A   24190.19849005  .00001557  00000+0  26772-3 0  9995
2 27939  98.2932 346.7333 0011828   0.0199 173.2732 14.70061668111369
IRS-P6 (RESOURCESAT-1)  
1 28051U 03046A   24189.95083626  .00000205  00000+0  83996-4 0  9997
2 28051  98.2928 246.4435 0063750 307.8696 177.1041 14.35497064 78777
SAUDISAT 2              
1 28371U 04025F   24189.94729045  .00000571  00000+0  14167-3 0  9990
2 28371  98.4839 163.4016 0024327 317.7915  42.1409 14.55535542 62564
COSMOS 2407             
1 28380U 04028A   24189.66691561  .00000086  00000+0  71686-4 0  9994
2 28380  82.9593 240.2344 0040629  77.4986  35.9504 13.76217343  2476
COSMOS 2414             
1 28521U 05002A   24190.20372493  .00000072  00000+0  47373-4 0  9997
2 28521  82.9482 219.8309 0040020 188.9039 171.1419 13.87781248985802
INMARSAT 4-F1           
1 28628U 05009A   24189.79998486  .00000028  00000+0  00000+0 0  9992
2 28628   4.3011  41.1365 0001464  85.2683 265.9317  1.00272587 70556
HAMSAT (VO-52)          
1 28650U 05017B   24189.82012562  .00004800  00000+0  40978-3 0  9996
2 28650  97.9847 176.7236 0018556 250.2746 109.6474 14.98056841 40146
NOAA 18                 
1 28654U 05018A   24190.16452404  .00000287  00000+0  17660-3 0  9990
2 28654  98.8743 266.9554 0014165   8.5629 351.5782 14.13247676986229
SJ-7                    
1 28737U 05024A   24189.58493381  .00005407  00000+0  37733-3 0  9994
2 28737  97.7657 195.1272 0020271 312.9130  47.0394 15.05641120 40644
CUBESAT XI-V            
1 28895U 05043F   24190.16881198  .00002075  00000+0  37165-3 0  9990
2 28895  98.2047 326.0289 0014390 292.4684  67.4997 14.67843645997764
CLOUDSAT                
1 29107U 06016A   24189.49761657  .00001984  00000+0  25354-3 0  9994
2 29107  98.4082 176.1443 0007096 100.1640 260.0373 14.82632182969172
CALIPSO                 
1 29108U 06016B   24189.90437979  .00001978  00000+0  37120-3 0  9995
2 29108  98.4186 172.2866 0001451  79.5965 280.5401 14.65888514969006
HINODE (SOLAR-B)        
1 29479U 06041A   24189.54184961  .00001314  00000+0  24516-3 0  9993
2 29479  98.0881 204.5867 0018432  21.4449 338.7524 14.66527911950762
METOP-A                 
1 29499U 06044A   24190.21592505  .00003486  00000+0  44079-3 0  9999
2 29499  98.3558 265.9218 0188545 162.1702 259.7079 14.70767422923874
SHIJIAN-6 02B (SJ-6 02B)
1 29506U 06046B   24190.16356756  .00002279  00000+0  20078-3 0  9992
2 29506  97.7385 214.8700 0001346 153.5504 206.5787 14.97459265964479
DMSP 5D-3 F17 (USA 191) 
1 29522U 06050A   24190.19512780  .00000134  00000+0  92448-4 0  9998
2 29522  98.7433 200.3374 0008907 281.6972  78.3201 14.14497753912169
LAPAN-TUBSAT            
1 29709U 07001A   24190.17985990  .00000946  00000+0  12002-3 0  9995
2 29709  98.0696 165.6223 0011929 339.3562  20.7168 14.84071849945924
HAIYANG-1B              
1 31113U 07010A   24189.58879445  .00000156  00000+0  75543-4 0  9990
2 31113  98.2947 190.6872 0014439 141.3681 218.8539 14.30625577899156
BEIDOU-2 M1             
1 31115U 07011A   24188.94719318  .00000019  00000+0  00000+0 0  9993
2 31115  51.2361 242.8837 0001579 317.7841  42.2950  1.77349277 63556
CAPE-1                  
1 31130U 07012P   24189.39490842  .00001825  00000+0  36566-3 0  9995
2 31130  98.3516 139.8975 0091218 123.2717 237.7264 14.60397994914555
AIM                     
1 31304U 07015A   24189.49344008  .00167368  00000+0  11022-2 0  9998
2 31304  97.8907 168.2701 0004216 142.5726 217.5831 15.75155553946321
CBERS 2B                
1 32062U 07042A   24189.87772848  .00000407  00000+0  14035-3 0  9997
2 32062  98.3024 139.9076 0030486 313.4383 109.0961 14.40594856882585
COSMO-SKYMED 2          
1 32376U 07059A   24190.16541935  .00000739  00000+0  99353-4 0  9993
2 32376  97.8869  12.9975 0001373  90.0479 270.0892 14.82155650897050
CARTOSAT-2A             
1 32783U 08021A   24190.08434649  .00001270  00000+0  17985-3 0  9990
2 32783  97.8649 248.0520 0010981 249.1422 110.8614 14.78735715874099
CUTE-1.7+APD II (CO-65) 
1 32785U 08021C   24189.87270069  .00004719  00000+0  41449-3 0  9994
2 32785  97.7565 155.0316 0008923 254.6670 105.3566 14.97034588878647
COMPASS-1               
1 32787U 08021E   24189.48085596  .00015439  00000+0  87850-3 0  9999
2 32787  97.6218 165.8787 0011780 125.4157 234.8176 15.12885079880807
AAUSAT-II               
1 32788U 08021F   24189.87384274  .00020873  00000+0  10127-2 0  9998
2 32788  97.5944 170.1882 0008268 101.7695 258.4467 15.18489857881568
SEEDS II (CO-66)        
1 32791U 08021J   24189.89030370  .00008333  00000+0  60205-3 0  9999
2 32791  97.6898 160.9511 0003916 217.8981 142.1970 15.04317556879712
YUBILEINY (RS-30)       
1 32953U 08025A   24190.15766664  .00000040  00000+0  21324-3 0  9992
2 32953  82.5021  76.4435 0020563  59.7692 300.5420 12.43143215731736
FENGYUN 3A              
1 32958U 08026A   24189.83222498  .00000206  00000+0  11882-3 0  9995
2 32958  98.6045 136.3557 0009161  20.5633 339.5911 14.19116913834885
HUANJING 1A (HJ-1A)     
1 33320U 08041A   24190.18980151  .00001850  00000+0  25006-3 0  9992
2 33320  97.6303 196.1660 0018806 305.3880  54.5576 14.80066040853467
