OBJECT_NAME,OBJECT_ID,EPOCH,MEAN_MOTION,ECCENTRICITY,INCLINATION,RA_OF_ASC_NODE,ARG_OF_PERICENTER,MEAN_ANOMALY,EPHEMERIS_TYPE,CLASSIFICATION_TYPE,NORAD_CAT_ID,ELEMENT_SET_NO,REV_AT_EPOCH,BSTAR,MEAN_MOTION_DOT,MEAN_MOTION_DDOT
MOZHAYETS 4 (RS-22),2003-042A,2024-07-08T04:45:49.540320,14.70061668,.0011828,98.2932,346.7333,0.0199,173.2732,0,U,27939,999,11136,.26772E-3,.1557E-4,0
IRS-P6 (RESOURCESAT-1),2003-046A,2024-07-07T22:49:12.252864,14.35497064,.006375,98.2928,246.4435,307.8696,177.1041,0,U,28051,999,7877,.83996E-4,.205E-5,0
SAUDISAT 2,2004-025F,2024-07-07T22:44:05.894880,14.55535542,.0024327,98.4839,163.4016,317.7915,42.1409,0,U,28371,999,6256,.14167E-3,.571E-5,0
COSMOS 2407,2004-028A,2024-07-07T16:00:21.508704,13.76217343,.0040629,82.9593,240.2344,77.4986,35.9504,0,U,28380,999,247,.71686E-4,.86E-6,0
COSMOS 2414,2005-002A,2024-07-08T04:53:21.833952,13.87781248,.004002,82.9482,219.8309,188.9039,171.1419,0,U,28521,999,98580,.47373E-4,.72E-6,0
INMARSAT 4-F1,2005-009A,2024-07-07T19:11:58.691904,1.00272587,.0001464,4.3011,41.1365,85.2683,265.9317,0,U,28628,999,7055,0,.28E-6,0
HAMSAT (VO-52),2005-017B,2024-07-07T19:40:58.853568,14.98056841,.0018556,97.9847,176.7236,250.2746,109.6474,0,U,28650,999,4014,.40978E-3,.48E-4,0
NOAA 18,2005-018A,2024-07-08T03:56:54.877056,14.13247676,.0014165,98.8743,266.9554,8.5629,351.5782,0,U,28654,999,98622,.1766E-3,.287E-5,0
SJ-7,2005-024A,2024-07-07T14:02:18.281184,15.05641120,.0020271,97.7657,195.1272,312.9130,47.0394,0,U,28737,999,4064,.37733E-3,.5407E-4,0
CUBESAT XI-V,2005-043F,2024-07-08T04:03:05.355072,14.67843645,.001439,98.2047,326.0289,292.4684,67.4997,0,U,28895,999,99776,.37165E-3,.2075E-4,0
CLOUDSAT,2006-016A,2024-07-07T11:56:34.071648,14.82632182,.0007096,98.4082,176.1443,100.1640,260.0373,0,U,29107,999,96917,.25354E-3,.1984E-4,0
CALIPSO,2006-016B,2024-07-07T21:42:18.413856,14.65888514,.0001451,98.4186,172.2866,79.5965,280.5401,0,U,29108,999,96900,.3712E-3,.1978E-4,0
HINODE (SOLAR-B),2006-041A,2024-07-07T13:00:15.806304,14.66527911,.0018432,98.0881,204.5867,21.4449,338.7524,0,U,29479,999,95076,.24516E-3,.1314E-4,0
METOP-A,2006-044A,2024-07-08T05:10:55.924320,14.70767422,.0188545,98.3558,265.9218,162.1702,259.7079,0,U,29499,999,92387,.44079E-3,.3486E-4,0
SHIJIAN-6 02B (SJ-6 02B),2006-046B,2024-07-08T03:55:32.237184,14.97459265,.0001346,97.7385,214.8700,153.5504,206.5787,0,U,29506,999,96447,.20078E-3,.2279E-4,0
DMSP 5D-3 F17 (USA 191),2006-050A,2024-07-08T04:40:59.041920,14.14497753,.0008907,98.7433,200.3374,281.6972,78.3201,0,U,29522,999,91216,.92448E-4,.134E-5,0
LAPAN-TUBSAT,2007-001A,2024-07-08T04:18:59.895360,14.84071849,.0011929,98.0696,165.6223,339.3562,20.7168,0,U,29709,999,94592,.12002E-3,.946E-5,0
HAIYANG-1B,2007-010A,2024-07-07T14:07:51.840480,14.30625577,.0014439,98.2947,190.6872,141.3681,218.8539,0,U,31113,999,89915,.75543E-4,.156E-5,0
BEIDOU-2 M1,2007-011A,2024-07-06T22:43:57.490752,1.77349277,.0001579,51.2361,242.8837,317.7841,42.2950,0,U,31115,999,6355,0,.19E-6,0
CAPE-1,2007-012P,2024-07-07T09:28:40.087488,14.60397994,.0091218,98.3516,139.8975,123.2717,237.7264,0,U,31130,999,91455,.36566E-3,.1825E-4,0
AIM,2007-015A,2024-07-07T11:50:33.222912,15.75155553,.0004216,97.8907,168.2701,142.5726,217.5831,0,U,31304,999,94632,.11022E-2,.167368E-2,0
CBERS 2B,2007-042A,2024-07-07T21:03:55.740672,14.40594856,.0030486,98.3024,139.9076,313.4383,109.0961,0,U,32062,999,88258,.14035E-3,.407E-5,0
COSMO-SKYMED 2,2007-059A,2024-07-08T03:58:12.231840,14.82155650,.0001373,97.8869,12.9975,90.0479,270.0892,0,U,32376,999,89705,.99353E-4,.739E-5,0
CARTOSAT-2A,2008-021A,2024-07-08T02:01:27.536736,14.78735715,.0010981,97.8649,248.0520,249.1422,110.8614,0,U,32783,999,87409,.17985E-3,.127E-4,0
CUTE-1.7+APD II (CO-65),2008-021C,2024-07-07T20:56:41.339616,14.97034588,.0008923,97.7565,155.0316,254.6670,105.3566,0,U,32785,999,87864,.41449E-3,.4719E-4,0
COMPASS-1,2008-021E,2024-07-07T11:32:25.954944,15.12885079,.001178,97.6218,165.8787,125.4157,234.8176,0,U,32787,999,88080,.8785E-3,.15439E-3,0
AAUSAT-II,2008-021F,2024-07-07T20:58:20.012736,15.18489857,.0008268,97.5944,170.1882,101.7695,258.4467,0,U,32788,999,88156,.10127E-2,.20873E-3,0
SEEDS II (CO-66),2008-021J,2024-07-07T21:22:02.239680,15.04317556,.0003916,97.6898,160.9511,217.8981,142.1970,0,U,32791,999,87971,.60205E-3,.8333E-4,0
YUBILEINY (RS-30),2008-025A,2024-07-08T03:47:02.397696,12.43143215,.0020563,82.5021,76.4435,59.7692,300.5420,0,U,32953,999,73173,.21324E-3,.4E-6,0
FENGYUN 3A,2008-026A,2024-07-07T19:58:24.238272,14.19116913,.0009161,98.6045,136.3557,20.5633,339.5911,0,U,32958,999,83488,.11882E-3,.206E-5,0
HUANJING 1A (HJ-1A),2008-041A,2024-07-08T04:33:18.850464,14.80066040,.0018806,97.6303,196.1660,305.3880,54.5576,0,U,33320,999,85346,.25006E-3,.185E-4,0
